{
 "generated_at": "2026-06-19T09:28:30Z",
 "sources": [
  {
   "name": "CelesTrak",
   "url": "https://celestrak.org/NORAD/elements/",
   "license": "frei verfügbar; Attribution. Ursprünglich USSPACECOM/Space-Track."
  },
  {
   "name": "GCAT (J. McDowell, planet4589.org)",
   "url": "https://planet4589.org/space/gcat/",
   "license": "CC-BY 4.0"
  }
 ],
 "satellites": [
  {
   "norad": 43010,
   "name": "FENGYUN 3D",
   "intl": "2017-072A",
   "group": "weather",
   "gcat": {
    "class": "C",
    "category": "MET",
    "owner": "NSMC",
    "state": "CN"
   },
   "omm": {
    "OBJECT_NAME": "FENGYUN 3D",
    "OBJECT_ID": "2017-072A",
    "EPOCH": "2026-06-19T04:35:13.436736",
    "MEAN_MOTION": 14.19741346,
    "ECCENTRICITY": 0.0002514,
    "INCLINATION": 99.013,
    "RA_OF_ASC_NODE": 144.6502,
    "ARG_OF_PERICENTER": 59.5827,
    "MEAN_ANOMALY": 300.5597,
    "EPHEMERIS_TYPE": 0,
    "CLASSIFICATION_TYPE": "U",
    "NORAD_CAT_ID": 43010,
    "ELEMENT_SET_NO": 999,
    "REV_AT_EPOCH": 44527,
    "BSTAR": 0.00026962,
    "MEAN_MOTION_DOT": 0.00000524,
    "MEAN_MOTION_DDOT": 0
   }
  },
  {
   "norad": 49008,
   "name": "FENGYUN 3E",
   "intl": "2021-062A",
   "group": "weather",
   "gcat": {
    "class": "C",
    "category": "MET",
    "owner": "NSMC",
    "state": "CN"
   },
   "omm": {
    "OBJECT_NAME": "FENGYUN 3E",
    "OBJECT_ID": "2021-062A",
    "EPOCH": "2026-06-19T04:11:40.166016",
    "MEAN_MOTION": 14.19904258,
    "ECCENTRICITY": 0.0002868,
    "INCLINATION": 98.749,
    "RA_OF_ASC_NODE": 173.561,
    "ARG_OF_PERICENTER": 82.7472,
    "MEAN_ANOMALY": 277.403,
    "EPHEMERIS_TYPE": 0,
    "CLASSIFICATION_TYPE": "U",
    "NORAD_CAT_ID": 49008,
    "ELEMENT_SET_NO": 999,
    "REV_AT_EPOCH": 25686,
    "BSTAR": -0.00001986,
    "MEAN_MOTION_DOT": -8.6e-7,
    "MEAN_MOTION_DDOT": 0
   }
  },
  {
   "norad": 57490,
   "name": "FENGYUN 3F",
   "intl": "2023-111A",
   "group": "weather",
   "gcat": {
    "class": "C",
    "category": "MET",
    "owner": "NSMC",
    "state": "CN"
   },
   "omm": {
    "OBJECT_NAME": "FENGYUN 3F",
    "OBJECT_ID": "2023-111A",
    "EPOCH": "2026-06-19T03:48:26.685216",
    "MEAN_MOTION": 14.19939445,
    "ECCENTRICITY": 0.0001582,
    "INCLINATION": 98.6835,
    "RA_OF_ASC_NODE": 240.1306,
    "ARG_OF_PERICENTER": 92.1037,
    "MEAN_ANOMALY": 268.032,
    "EPHEMERIS_TYPE": 0,
    "CLASSIFICATION_TYPE": "U",
    "NORAD_CAT_ID": 57490,
    "ELEMENT_SET_NO": 999,
    "REV_AT_EPOCH": 14914,
    "BSTAR": 0.000041072,
    "MEAN_MOTION_DOT": 4.4e-7,
    "MEAN_MOTION_DDOT": 0
   }
  },
  {
   "norad": 56232,
   "name": "FENGYUN 3G",
   "intl": "2023-055A",
   "group": "weather",
   "gcat": {
    "class": "C",
    "category": "MET",
    "owner": "NSMC",
    "state": "CN"
   },
   "omm": {
    "OBJECT_NAME": "FENGYUN 3G",
    "OBJECT_ID": "2023-055A",
    "EPOCH": "2026-06-19T03:58:52.207392",
    "MEAN_MOTION": 15.52705274,
    "ECCENTRICITY": 0.0007016,
    "INCLINATION": 49.9937,
    "RA_OF_ASC_NODE": 335.8246,
    "ARG_OF_PERICENTER": 304.6764,
    "MEAN_ANOMALY": 55.3542,
    "EPHEMERIS_TYPE": 0,
    "CLASSIFICATION_TYPE": "U",
    "NORAD_CAT_ID": 56232,
    "ELEMENT_SET_NO": 999,
    "REV_AT_EPOCH": 18031,
    "BSTAR": 0.00031873,
    "MEAN_MOTION_DOT": 0.00019664,
    "MEAN_MOTION_DDOT": 0
   }
  },
  {
   "norad": 65815,
   "name": "FENGYUN 3H",
   "intl": "2025-219A",
   "group": "weather",
   "gcat": {
    "class": "C",
    "category": "MET",
    "owner": "NSMC",
    "state": "CN"
   },
   "omm": {
    "OBJECT_NAME": "FENGYUN 3H",
    "OBJECT_ID": "2025-219A",
    "EPOCH": "2026-06-19T02:01:47.460576",
    "MEAN_MOTION": 14.19920684,
    "ECCENTRICITY": 0.0001598,
    "INCLINATION": 98.6768,
    "RA_OF_ASC_NODE": 110.8168,
    "ARG_OF_PERICENTER": 75.7764,
    "MEAN_ANOMALY": 284.359,
    "EPHEMERIS_TYPE": 0,
    "CLASSIFICATION_TYPE": "U",
    "NORAD_CAT_ID": 65815,
    "ELEMENT_SET_NO": 999,
    "REV_AT_EPOCH": 3765,
    "BSTAR": 0.00003791,
    "MEAN_MOTION_DOT": 3.7e-7,
    "MEAN_MOTION_DDOT": 0
   }
  },
  {
   "norad": 41882,
   "name": "FENGYUN 4A",
   "intl": "2016-077A",
   "group": "weather",
   "gcat": {
    "class": "C",
    "category": "MET",
    "owner": "NSMC",
    "state": "CN"
   },
   "omm": {
    "OBJECT_NAME": "FENGYUN 4A",
    "OBJECT_ID": "2016-077A",
    "EPOCH": "2026-06-18T23:46:40.054368",
    "MEAN_MOTION": 1.00267559,
    "ECCENTRICITY": 0.0008691,
    "INCLINATION": 2.3279,
    "RA_OF_ASC_NODE": 80.2563,
    "ARG_OF_PERICENTER": 153.6206,
    "MEAN_ANOMALY": 153.7461,
    "EPHEMERIS_TYPE": 0,
    "CLASSIFICATION_TYPE": "U",
    "NORAD_CAT_ID": 41882,
    "ELEMENT_SET_NO": 999,
    "REV_AT_EPOCH": 3494,
    "BSTAR": 0,
    "MEAN_MOTION_DOT": -0.00000364,
    "MEAN_MOTION_DDOT": 0
   }
  },
  {
   "norad": 42920,
   "name": "FORMOSAT-5",
   "intl": "2017-049A",
   "group": "resource",
   "gcat": {
    "class": "C",
    "category": "IMG/SCI",
    "owner": "NSPO",
    "state": "TW"
   },
   "omm": {
    "OBJECT_NAME": "FORMOSAT-5",
    "OBJECT_ID": "2017-049A",
    "EPOCH": "2026-06-19T04:34:42.131424",
    "MEAN_MOTION": 14.50899466,
    "ECCENTRICITY": 0.0012656,
    "INCLINATION": 98.2254,
    "RA_OF_ASC_NODE": 245.456,
    "ARG_OF_PERICENTER": 78.8099,
    "MEAN_ANOMALY": 281.4518,
    "EPHEMERIS_TYPE": 0,
    "CLASSIFICATION_TYPE": "U",
    "NORAD_CAT_ID": 42920,
    "ELEMENT_SET_NO": 999,
    "REV_AT_EPOCH": 46696,
    "BSTAR": 0.000036506,
    "MEAN_MOTION_DOT": 0.00000101,
    "MEAN_MOTION_DDOT": 0
   }
  },
  {
   "norad": 39150,
   "name": "GAOFEN-1",
   "intl": "2013-018A",
   "group": "resource",
   "gcat": {
    "class": "C",
    "category": "IMG",
    "owner": "CNSAS",
    "state": "CN"
   },
   "omm": {
    "OBJECT_NAME": "GAOFEN-1",
    "OBJECT_ID": "2013-018A",
    "EPOCH": "2026-06-19T03:55:51.323808",
    "MEAN_MOTION": 14.76538459,
    "ECCENTRICITY": 0.0015707,
    "INCLINATION": 97.9093,
    "RA_OF_ASC_NODE": 242.1915,
    "ARG_OF_PERICENTER": 259.199,
    "MEAN_ANOMALY": 100.7452,
    "EPHEMERIS_TYPE": 0,
    "CLASSIFICATION_TYPE": "U",
    "NORAD_CAT_ID": 39150,
    "ELEMENT_SET_NO": 999,
    "REV_AT_EPOCH": 70853,
    "BSTAR": 0.000074192,
    "MEAN_MOTION_DOT": 0.00000467,
    "MEAN_MOTION_DDOT": 0
   }
  },
  {
   "norad": 43259,
   "name": "GAOFEN-1 02",
   "intl": "2018-031A",
   "group": "resource",
   "gcat": {
    "class": "C",
    "category": "IMG",
    "owner": "CNSAS",
    "state": "CN"
   },
   "omm": {
    "OBJECT_NAME": "GAOFEN-1 02",
    "OBJECT_ID": "2018-031A",
    "EPOCH": "2026-06-19T04:42:20.601792",
    "MEAN_MOTION": 14.76458453,
    "ECCENTRICITY": 0.0003653,
    "INCLINATION": 98.0522,
    "RA_OF_ASC_NODE": 232.7178,
    "ARG_OF_PERICENTER": 29.1792,
    "MEAN_ANOMALY": 330.9621,
    "EPHEMERIS_TYPE": 0,
    "CLASSIFICATION_TYPE": "U",
    "NORAD_CAT_ID": 43259,
    "ELEMENT_SET_NO": 999,
    "REV_AT_EPOCH": 44299,
    "BSTAR": 0.000069757,
    "MEAN_MOTION_DOT": 0.00000434,
    "MEAN_MOTION_DDOT": 0
   }
  },
  {
   "norad": 43260,
   "name": "GAOFEN-1 03",
   "intl": "2018-031B",
   "group": "resource",
   "gcat": {
    "class": "C",
    "category": "IMG",
    "owner": "CNSAS",
    "state": "CN"
   },
   "omm": {
    "OBJECT_NAME": "GAOFEN-1 03",
    "OBJECT_ID": "2018-031B",
    "EPOCH": "2026-06-19T04:10:51.267936",
    "MEAN_MOTION": 14.76471446,
    "ECCENTRICITY": 0.0003699,
    "INCLINATION": 98.0517,
    "RA_OF_ASC_NODE": 232.5541,
    "ARG_OF_PERICENTER": 75.0698,
    "MEAN_ANOMALY": 285.0921,
    "EPHEMERIS_TYPE": 0,
    "CLASSIFICATION_TYPE": "U",
    "NORAD_CAT_ID": 43260,
    "ELEMENT_SET_NO": 999,
    "REV_AT_EPOCH": 44298,
    "BSTAR": 0.000083511,
    "MEAN_MOTION_DOT": 0.0000053,
    "MEAN_MOTION_DDOT": 0
   }
  }
 ]
}
