GAOFEN-1                
1 39150U 13018A   26170.16378847  .00000467  00000+0  74192-4 0  9994
2 39150  97.9093 242.1915 0015707 259.1990 100.7452 14.76538459708530
FENGYUN 4A              
1 41882U 16077A   26169.99074137 -.00000364  00000+0  00000+0 0  9990
2 41882   2.3279  80.2563 0008691 153.6206 153.7461  1.00267559 34941
FORMOSAT-5              
1 42920U 17049A   26170.19076541  .00000101  00000+0  36506-4 0  9992
2 42920  98.2254 245.4560 0012656  78.8099 281.4518 14.50899466466968
FENGYUN 3D              
1 43010U 17072A   26170.19112774  .00000524  00000+0  26962-3 0  9991
2 43010  99.0130 144.6502 0002514  59.5827 300.5597 14.19741346445273
GAOFEN-1 02             
1 43259U 18031A   26170.19607178  .00000434  00000+0  69757-4 0  9999
2 43259  98.0522 232.7178 0003653  29.1792 330.9621 14.76458453442997
GAOFEN-1 03             
1 43260U 18031B   26170.17420449  .00000530  00000+0  83511-4 0  9994
2 43260  98.0517 232.5541 0003699  75.0698 285.0921 14.76471446442989
FENGYUN 3E              
1 49008U 21062A   26170.17477044 -.00000086  00000+0 -19860-4 0  9995
2 49008  98.7490 173.5610 0002868  82.7472 277.4030 14.19904258256860
FENGYUN 3G              
1 56232U 23055A   26170.16588203  .00019664  00000+0  31873-3 0  9992
2 56232  49.9937 335.8246 0007016 304.6764  55.3542 15.52705274180311
FENGYUN 3F              
1 57490U 23111A   26170.15864219  .00000044  00000+0  41072-4 0  9990
2 57490  98.6835 240.1306 0001582  92.1037 268.0320 14.19939445149149
FENGYUN 3H              
1 65815U 25219A   26170.08457709  .00000037  00000+0  37910-4 0  9993
2 65815  98.6768 110.8168 0001598  75.7764 284.3590 14.19920684 37651
